{"type":"FeatureCollection","metadata":{"generated":1785575968000,"url":"https://earthquake.usgs.gov/earthquakes/feed/v1.0/summary/significant_month.geojson","title":"USGS Significant Earthquakes, Past Month","status":200,"api":"2.7.0","count":13},"features":[{"type":"Feature","properties":{"mag":6.8,"place":"2026 Uto, Japan Earthquake ","time":1785223635512,"updated":1785572619301,"tz":null,"url":"https://earthquake.usgs.gov/earthquakes/eventpage/us6000tgb9","detail":"https://earthquake.usgs.gov/earthquakes/feed/v1.0/detail/us6000tgb9.geojson","felt":85,"cdi":8.7,"mmi":9.243,"alert":"red","status":"reviewed","tsunami":0,"sig":723,"net":"us","code":"6000tgb9","ids":",attivjdk,pt26209004,us6000tgb9,","sources":",at,pt,us,","types":",associate,dyfi,earthquake-name,finite-fault,general-text,ground-failure,losspager,moment-tensor,origin,phase-data,shakemap,significance,","nst":102,"dmin":1.191,"rms":1.38,"gap":39,"magType":"mww","type":"earthquake","title":"M 6.8 - 2026 Uto, Japan Earthquake "},"geometry":{"type":"Point","coordinates":[130.7217,32.6817,10]},"id":"us6000tgb9"},
{"type":"Feature","properties":{"mag":5.8,"place":"191 km NW of Oula Xiuma, China","time":1785209645779,"updated":1785296563213,"tz":null,"url":"https://earthquake.usgs.gov/earthquakes/eventpage/us6000tga9","detail":"https://earthquake.usgs.gov/earthquakes/feed/v1.0/detail/us6000tga9.geojson","felt":1,"cdi":2,"mmi":7.337,"alert":"yellow","status":"reviewed","tsunami":0,"sig":650,"net":"us","code":"6000tga9","ids":",us6000tga9,","sources":",us,","types":",dyfi,ground-failure,losspager,origin,phase-data,shakemap,","nst":107,"dmin":3.422,"rms":0.67,"gap":33,"magType":"mww","type":"earthquake","title":"M 5.8 - 191 km NW of Oula Xiuma, China"},"geometry":{"type":"Point","coordinates":[99.5513,35.3866,10]},"id":"us6000tga9"},
{"type":"Feature","properties":{"mag":5.7,"place":"192 km NW of Oula Xiuma, China","time":1785208568857,"updated":1785295478808,"tz":null,"url":"https://earthquake.usgs.gov/earthquakes/eventpage/us6000tga6","detail":"https://earthquake.usgs.gov/earthquakes/feed/v1.0/detail/us6000tga6.geojson","felt":1,"cdi":2,"mmi":7.261,"alert":"yellow","status":"reviewed","tsunami":0,"sig":650,"net":"us","code":"6000tga6","ids":",us6000tga6,","sources":",us,","types":",dyfi,ground-failure,losspager,moment-tensor,origin,phase-data,shakemap,","nst":136,"dmin":3.45,"rms":0.76,"gap":47,"magType":"mww","type":"earthquake","title":"M 5.7 - 192 km NW of Oula Xiuma, China"},"geometry":{"type":"Point","coordinates":[99.5198,35.3685,10]},"id":"us6000tga6"},
{"type":"Feature","properties":{"mag":5,"place":"38 km SSE of Spearman, Texas","time":1784802103909,"updated":1785493915345,"tz":null,"url":"https://earthquake.usgs.gov/earthquakes/eventpage/tx2026ojlaky","detail":"https://earthquake.usgs.gov/earthquakes/feed/v1.0/detail/tx2026ojlaky.geojson","felt":499,"cdi":6.6,"mmi":5.988,"alert":"green","status":"reviewed","tsunami":0,"sig":714,"net":"tx","code":"2026ojlaky","ids":",us7000t2nb,tx2026ojlaky,","sources":",us,tx,","types":",dyfi,event-sequence,losspager,moment-tensor,oaf,origin,phase-data,shakemap,","nst":14,"dmin":0.4,"rms":0.3,"gap":71,"magType":"ml","type":"earthquake","title":"M 5.0 - 38 km SSE of Spearman, Texas"},"geometry":{"type":"Point","coordinates":[-100.976,35.902,5.6885]},"id":"tx2026ojlaky"},
{"type":"Feature","properties":{"mag":5.5,"place":"4 km SSW of Chupaca, Peru","time":1784427875623,"updated":1784668036191,"tz":null,"url":"https://earthquake.usgs.gov/earthquakes/eventpage/us7000t1q7","detail":"https://earthquake.usgs.gov/earthquakes/feed/v1.0/detail/us7000t1q7.geojson","felt":12,"cdi":6.7,"mmi":7.204,"alert":"yellow","status":"reviewed","tsunami":0,"sig":658,"net":"us","code":"7000t1q7","ids":",us7000t1q7,","sources":",us,","types":",dyfi,ground-failure,losspager,moment-tensor,origin,phase-data,shakemap,","nst":201,"dmin":1.51,"rms":0.63,"gap":32,"magType":"mww","type":"earthquake","title":"M 5.5 - 4 km SSW of Chupaca, Peru"},"geometry":{"type":"Point","coordinates":[-75.3034,-12.1036,10]},"id":"us7000t1q7"},
{"type":"Feature","properties":{"mag":6.4,"place":"101 km WSW of Puerto Madero, Mexico","time":1784301606414,"updated":1785525548148,"tz":null,"url":"https://earthquake.usgs.gov/earthquakes/eventpage/us7000t1cc","detail":"https://earthquake.usgs.gov/earthquakes/feed/v1.0/detail/us7000t1cc.geojson","felt":2,"cdi":3.8,"mmi":4.73,"alert":"green","status":"reviewed","tsunami":0,"sig":631,"net":"us","code":"7000t1cc","ids":",us7000t1cc,","sources":",us,","types":",dyfi,ground-failure,losspager,moment-tensor,origin,phase-data,shakemap,","nst":84,"dmin":3.336,"rms":1.37,"gap":61,"magType":"mww","type":"earthquake","title":"M 6.4 - 101 km WSW of Puerto Madero, Mexico"},"geometry":{"type":"Point","coordinates":[-93.2025,14.216,10]},"id":"us7000t1cc"},
{"type":"Feature","properties":{"mag":7.3,"place":"52 km W of Puerto Madero, Mexico","time":1784299720227,"updated":1785178940562,"tz":null,"url":"https://earthquake.usgs.gov/earthquakes/eventpage/us7000t1bu","detail":"https://earthquake.usgs.gov/earthquakes/feed/v1.0/detail/us7000t1bu.geojson","felt":287,"cdi":7.4,"mmi":7.027,"alert":"yellow","status":"reviewed","tsunami":0,"sig":1032,"net":"us","code":"7000t1bu","ids":",attibqh8,us7000t1bu,","sources":",at,us,","types":",dyfi,finite-fault,general-text,ground-failure,losspager,moment-tensor,origin,phase-data,shakemap,","nst":249,"dmin":3.109,"rms":1.09,"gap":51,"magType":"mww","type":"earthquake","title":"M 7.3 - 52 km W of Puerto Madero, Mexico"},"geometry":{"type":"Point","coordinates":[-92.8969,14.6361,22]},"id":"us7000t1bu"},
{"type":"Feature","properties":{"mag":6.2,"place":"32 km WSW of Sarangani, Philippines","time":1784044179282,"updated":1785326553721,"tz":null,"url":"https://earthquake.usgs.gov/earthquakes/eventpage/us7000t0d0","detail":"https://earthquake.usgs.gov/earthquakes/feed/v1.0/detail/us7000t0d0.geojson","felt":83,"cdi":5.9,"mmi":6.052,"alert":"green","status":"reviewed","tsunami":0,"sig":640,"net":"us","code":"7000t0d0","ids":",us7000t0d0,","sources":",us,","types":",dyfi,ground-failure,losspager,moment-tensor,origin,phase-data,shakemap,","nst":271,"dmin":1.78,"rms":0.6,"gap":23,"magType":"mww","type":"earthquake","title":"M 6.2 - 32 km WSW of Sarangani, Philippines"},"geometry":{"type":"Point","coordinates":[125.1801,5.3226,46.427]},"id":"us7000t0d0"},
{"type":"Feature","properties":{"mag":4.31762677888687,"place":"18 km WSW of Johannesburg, CA","time":1783960855170,"updated":1785343860666,"tz":null,"url":"https://earthquake.usgs.gov/earthquakes/eventpage/ci41292687","detail":"https://earthquake.usgs.gov/earthquakes/feed/v1.0/detail/ci41292687.geojson","felt":1090,"cdi":3.8,"mmi":4.501,"alert":"green","status":"reviewed","tsunami":0,"sig":667,"net":"ci","code":"41292687","ids":",ew1783960860,ci41292687,us7000t02g,","sources":",ew,ci,us,","types":",dyfi,event-sequence,focal-mechanism,losspager,moment-tensor,nearby-cities,oaf,origin,phase-data,scitech-link,shake-alert,shakemap,","nst":81,"dmin":0.05134,"rms":0.15,"gap":22,"magType":"mw","type":"earthquake","title":"M 4.3 - 18 km WSW of Johannesburg, CA"},"geometry":{"type":"Point","coordinates":[-117.814833333333,35.3121666666667,7.55]},"id":"ci41292687"},
{"type":"Feature","properties":{"mag":6.3,"place":"southeast of the Loyalty Islands","time":1783953949630,"updated":1784820712051,"tz":null,"url":"https://earthquake.usgs.gov/earthquakes/eventpage/us7000t01n","detail":"https://earthquake.usgs.gov/earthquakes/feed/v1.0/detail/us7000t01n.geojson","felt":null,"cdi":null,"mmi":0,"alert":"green","status":"reviewed","tsunami":0,"sig":611,"net":"us","code":"7000t01n","ids":",us7000t01n,atti4boj,","sources":",us,at,","types":",ground-failure,losspager,moment-tensor,origin,phase-data,shakemap,","nst":125,"dmin":3.796,"rms":0.71,"gap":39,"magType":"mww","type":"earthquake","title":"M 6.3 - southeast of the Loyalty Islands"},"geometry":{"type":"Point","coordinates":[171.5534,-22.7876,16]},"id":"us7000t01n"},
{"type":"Feature","properties":{"mag":6.4,"place":"191 km SE of Lorengau, Papua New Guinea","time":1783932807913,"updated":1784023255147,"tz":null,"url":"https://earthquake.usgs.gov/earthquakes/eventpage/us7000szzy","detail":"https://earthquake.usgs.gov/earthquakes/feed/v1.0/detail/us7000szzy.geojson","felt":null,"cdi":null,"mmi":4.289,"alert":"green","status":"reviewed","tsunami":0,"sig":630,"net":"us","code":"7000szzy","ids":",us7000szzy,atti3vd8,pt26194000,","sources":",us,at,pt,","types":",ground-failure,losspager,moment-tensor,origin,phase-data,shakemap,","nst":81,"dmin":1.643,"rms":0.81,"gap":48,"magType":"mww","type":"earthquake","title":"M 6.4 - 191 km SE of Lorengau, Papua New Guinea"},"geometry":{"type":"Point","coordinates":[148.5218,-3.2207,10]},"id":"us7000szzy"},
{"type":"Feature","properties":{"mag":4.10922888670317,"place":"2 km ESE of Frazier Park, CA","time":1783852684730,"updated":1785494892686,"tz":null,"url":"https://earthquake.usgs.gov/earthquakes/eventpage/ci41291863","detail":"https://earthquake.usgs.gov/earthquakes/feed/v1.0/detail/ci41291863.geojson","felt":797,"cdi":4.8,"mmi":4.158,"alert":"green","status":"reviewed","tsunami":0,"sig":642,"net":"ci","code":"41291863","ids":",ew1783852680,ci41291863,us7000szuv,","sources":",ew,ci,us,","types":",dyfi,event-sequence,focal-mechanism,losspager,moment-tensor,nearby-cities,oaf,origin,phase-data,scitech-link,shake-alert,shakemap,trump-moment-tensor,","nst":123,"dmin":0.04811,"rms":0.31,"gap":25,"magType":"mw","type":"earthquake","title":"M 4.1 - 2 km ESE of Frazier Park, CA"},"geometry":{"type":"Point","coordinates":[-118.925833333333,34.8131666666667,13.09]},"id":"ci41291863"},
{"type":"Feature","properties":{"mag":6.4,"place":"South Sandwich Islands region","time":1783765602630,"updated":1784978059914,"tz":null,"url":"https://earthquake.usgs.gov/earthquakes/eventpage/us7000szpb","detail":"https://earthquake.usgs.gov/earthquakes/feed/v1.0/detail/us7000szpb.geojson","felt":null,"cdi":null,"mmi":3.866,"alert":"green","status":"reviewed","tsunami":0,"sig":630,"net":"us","code":"7000szpb","ids":",us7000szpb,","sources":",us,","types":",ground-failure,losspager,moment-tensor,origin,phase-data,shakemap,","nst":90,"dmin":4.549,"rms":0.79,"gap":57,"magType":"mww","type":"earthquake","title":"M 6.4 - South Sandwich Islands region"},"geometry":{"type":"Point","coordinates":[-28.9109,-55.5349,26]},"id":"us7000szpb"}],"bbox":[-118.92583333333,-55.5349,5.6885,171.5534,35.902,46.427]}